ONEWEB-0207             
1 48242U 21031AJ  24138.53317174  .00000192  00000+0  48372-3 0  9994
2 48242  87.8955  81.0327 0001959  73.6487 286.4858 13.14505193148369
ONEWEB-0208             
1 48243U 21031AK  24138.59104304  .00000229  00000+0  58428-3 0  9994
2 48243  87.8955  81.0362 0002227  79.8242 280.3139 13.14506815148384
ONEWEB-0200             
1 48244U 21031AL  24138.55457419 -.00000479  00000+0 -13279-2 0  9992
2 48244  87.8951  81.0412 0002254  80.4209 279.7176 13.14502209148306
ONEWEB-0217             
1 48245U 21031AM  24138.57044381 -.00000130  00000+0 -38618-3 0  9994
2 48245  87.8953  81.0225 0002438  82.4063 277.7343 13.14504970148250
ONEWEB-0211             
1 48767U 21045A   24138.52176166  .00002343  00000+0  61897-2 0  9990
2 48767  87.9056  50.5502 0001948  82.9060 277.2292 13.15537869144405
ONEWEB-0223             
1 48768U 21045B   24138.46785565 -.00000043  00000+0 -14929-3 0  9995
2 48768  87.9059  50.5669 0002246  98.1568 261.9817 13.15546416144385
ONEWEB-0230             
1 48769U 21045C   24138.51539242  .00000103  00000+0  23882-3 0  9994
2 48769  87.9057  50.6288 0001795  82.4767 277.6568 13.15548054145767
ONEWEB-0237             
1 48770U 21045D   24138.50430173  .00000096  00000+0  22177-3 0  9995
2 48770  87.9061  50.5603 0002075  92.2848 267.8520 13.15548563144375
